{
  "type": "FeatureCollection",
  "features": [
    {
      "type": "Feature",
      "properties": {
        "norad_id": 34784,
        "name": "COSMOS 2251 DEB",
        "group": "cosmos-2251-debris",
        "lat": -1.8842179417693552,
        "lon": 131.5646363895802,
        "alt_km": 677.8102175370723,
        "timestamp": "2025-12-19T16:54:44.658416+00:00",
        "meta_object_name": "COSMOS 2251 DEB",
        "meta_object_id": "1993-036AAM",
        "meta_epoch": "2025-12-18T22:00:27.495360",
        "meta_mean_motion": 14.60805851,
        "meta_eccentricity": 0.00492299,
        "meta_inclination": 74.0074,
        "meta_ra_of_asc_node": 312.5311,
        "meta_arg_of_pericenter": 119.9872,
        "meta_mean_anomaly": 240.6194,
        "meta_ephemeris_type": 0,
        "meta_classification_type": "U",
        "meta_norad_cat_id": 34784,
        "meta_element_set_no": 999,
        "meta_rev_at_epoch": 88625,
        "meta_bstar": 0.0003574958,
        "meta_mean_motion_dot": 1.746e-05,
        "meta_mean_motion_ddot": 0,
        "tle_line1": "1 34784U 93036AAM 25352.91698490  .00001746  00000+0  35750-3 0  9990",
        "tle_line2": "2 34784  74.0074 312.5311 0049229 119.9872 240.6194 14.60805851886252"
      },
      "geometry": {
        "type": "Point",
        "coordinates": [
          131.5646363895802,
          -1.8842179417693552
        ]
      }
    },
    {
      "type": "Feature",
      "properties": {
        "norad_id": 34790,
        "name": "COSMOS 2251 DEB",
        "group": "cosmos-2251-debris",
        "lat": 54.7955514202614,
        "lon": 27.260747869567098,
        "alt_km": 875.1427485968134,
        "timestamp": "2025-12-19T16:54:44.658427+00:00",
        "meta_object_name": "COSMOS 2251 DEB",
        "meta_object_id": "1993-036AAT",
        "meta_epoch": "2025-12-19T01:45:39.066048",
        "meta_mean_motion": 14.24654266,
        "meta_eccentricity": 0.01005027,
        "meta_inclination": 74.054,
        "meta_ra_of_asc_node": 232.3028,
        "meta_arg_of_pericenter": 292.688,
        "meta_mean_anomaly": 192.7008,
        "meta_ephemeris_type": 0,
        "meta_classification_type": "U",
        "meta_norad_cat_id": 34790,
        "meta_element_set_no": 999,
        "meta_rev_at_epoch": 86663,
        "meta_bstar": 0.00052668359,
        "meta_mean_motion_dot": 1.264e-05,
        "meta_mean_motion_ddot": 0,
        "tle_line1": "1 34790U 93036AAT 25353.07336882  .00001264  00000+0  52668-3 0  9991",
        "tle_line2": "2 34790  74.0540 232.3028 0100502 292.6880 192.7008 14.24654266866634"
      },
      "geometry": {
        "type": "Point",
        "coordinates": [
          27.260747869567098,
          54.7955514202614
        ]
      }
    },
    {
      "type": "Feature",
      "properties": {
        "norad_id": 34792,
        "name": "COSMOS 2251 DEB",
        "group": "cosmos-2251-debris",
        "lat": 42.633882679116795,
        "lon": -38.809978737074886,
        "alt_km": 706.043930237056,
        "timestamp": "2025-12-19T16:54:44.658438+00:00",
        "meta_object_name": "COSMOS 2251 DEB",
        "meta_object_id": "1993-036AAV",
        "meta_epoch": "2025-12-18T21:11:56.751072",
        "meta_mean_motion": 14.56003534,
        "meta_eccentricity": 0.00124553,
        "meta_inclination": 74.0168,
        "meta_ra_of_asc_node": 158.0484,
        "meta_arg_of_pericenter": 252.5334,
        "meta_mean_anomaly": 259.0789,
        "meta_ephemeris_type": 0,
        "meta_classification_type": "U",
        "meta_norad_cat_id": 34792,
        "meta_element_set_no": 999,
        "meta_rev_at_epoch": 87739,
        "meta_bstar": 0.00077390996,
        "meta_mean_motion_dot": 3.382e-05,
        "meta_mean_motion_ddot": 0,
        "tle_line1": "1 34792U 93036AAV 25352.88329573  .00003382  00000+0  77391-3 0  9993",
        "tle_line2": "2 34792  74.0168 158.0484 0012455 252.5334 259.0789 14.56003534877399"
      },
      "geometry": {
        "type": "Point",
        "coordinates": [
          -38.809978737074886,
          42.633882679116795
        ]
      }
    },
    {
      "type": "Feature",
      "properties": {
        "norad_id": 34793,
        "name": "COSMOS 2251 DEB",
        "group": "cosmos-2251-debris",
        "lat": -19.093260097230644,
        "lon": 63.19929347411401,
        "alt_km": 803.2328190182379,
        "timestamp": "2025-12-19T16:54:44.658453+00:00",
        "meta_object_name": "COSMOS 2251 DEB",
        "meta_object_id": "1993-036AAW",
        "meta_epoch": "2025-12-19T03:20:08.887200",
        "meta_mean_motion": 14.38654591,
        "meta_eccentricity": 0.00505682,
        "meta_inclination": 74.0022,
        "meta_ra_of_asc_node": 238.5448,
        "meta_arg_of_pericenter": 31.0107,
        "meta_mean_anomaly": 120.0423,
        "meta_ephemeris_type": 0,
        "meta_classification_type": "U",
        "meta_norad_cat_id": 34793,
        "meta_element_set_no": 999,
        "meta_rev_at_epoch": 87422,
        "meta_bstar": 0.00018686478,
        "meta_mean_motion_dot": 5.55e-06,
        "meta_mean_motion_ddot": 0,
        "tle_line1": "1 34793U 93036AAW 25353.13899175  .00000555  00000+0  18686-3 0  9994",
        "tle_line2": "2 34793  74.0022 238.5448 0050568  31.0107 120.0423 14.38654591874224"
      },
      "geometry": {
        "type": "Point",
        "coordinates": [
          63.19929347411401,
          -19.093260097230644
        ]
      }
    },
    {
      "type": "Feature",
      "properties": {
        "norad_id": 34796,
        "name": "COSMOS 2251 DEB",
        "group": "cosmos-2251-debris",
        "lat": -4.545947014454924,
        "lon": 24.59117463669031,
        "alt_km": 767.2859638566279,
        "timestamp": "2025-12-19T16:54:44.658464+00:00",
        "meta_object_name": "COSMOS 2251 DEB",
        "meta_object_id": "1993-036AAZ",
        "meta_epoch": "2025-12-18T13:39:48.398688",
        "meta_mean_motion": 14.48716827,
        "meta_eccentricity": 0.01002628,
        "meta_inclination": 74.0291,
        "meta_ra_of_asc_node": 205.4145,
        "meta_arg_of_pericenter": 306.2489,
        "meta_mean_anomaly": 80.3667,
        "meta_ephemeris_type": 0,
        "meta_classification_type": "U",
        "meta_norad_cat_id": 34796,
        "meta_element_set_no": 999,
        "meta_rev_at_epoch": 88112,
        "meta_bstar": 0.00042663787,
        "meta_mean_motion_dot": 1.684e-05,
        "meta_mean_motion_ddot": 0,
        "tle_line1": "1 34796U 93036AAZ 25352.56931017  .00001684  00000+0  42664-3 0  9992",
        "tle_line2": "2 34796  74.0291 205.4145 0100262 306.2489  80.3667 14.48716827881126"
      },
      "geometry": {
        "type": "Point",
        "coordinates": [
          24.59117463669031,
          -4.545947014454924
        ]
      }
    },
    {
      "type": "Feature",
      "properties": {
        "norad_id": 34797,
        "name": "COSMOS 2251 DEB",
        "group": "cosmos-2251-debris",
        "lat": 16.941768019087746,
        "lon": -98.0135839598726,
        "alt_km": 708.3330244514709,
        "timestamp": "2025-12-19T16:54:44.658474+00:00",
        "meta_object_name": "COSMOS 2251 DEB",
        "meta_object_id": "1993-036ABA",
        "meta_epoch": "2025-12-18T13:32:08.695392",
        "meta_mean_motion": 14.42903821,
        "meta_eccentricity": 0.00713736,
        "meta_inclination": 73.9783,
        "meta_ra_of_asc_node": 89.1324,
        "meta_arg_of_pericenter": 201.7042,
        "meta_mean_anomaly": 158.1087,
        "meta_ephemeris_type": 0,
        "meta_classification_type": "U",
        "meta_norad_cat_id": 34797,
        "meta_element_set_no": 999,
        "meta_rev_at_epoch": 87499,
        "meta_bstar": 0.0016985088,
        "meta_mean_motion_dot": 5.83e-05,
        "meta_mean_motion_ddot": 0,
        "tle_line1": "1 34797U 93036ABA 25352.56398953  .00005830  00000+0  16985-2 0  9992",
        "tle_line2": "2 34797  73.9783  89.1324 0071373 201.7042 158.1087 14.42903821874994"
      },
      "geometry": {
        "type": "Point",
        "coordinates": [
          -98.0135839598726,
          16.941768019087746
        ]
      }
    },
    {
      "type": "Feature",
      "properties": {
        "norad_id": 34814,
        "name": "COSMOS 2251 DEB",
        "group": "cosmos-2251-debris",
        "lat": -3.023648453906488,
        "lon": -48.354430586267185,
        "alt_km": 808.1677517656399,
        "timestamp": "2025-12-19T16:54:44.658485+00:00",
        "meta_object_name": "COSMOS 2251 DEB",
        "meta_object_id": "1993-036ABD",
        "meta_epoch": "2025-12-19T05:31:29.279136",
        "meta_mean_motion": 14.36920204,
        "meta_eccentricity": 0.00558005,
        "meta_inclination": 73.8955,
        "meta_ra_of_asc_node": 313.3995,
        "meta_arg_of_pericenter": 201.6283,
        "meta_mean_anomaly": 221.5963,
        "meta_ephemeris_type": 0,
        "meta_classification_type": "U",
        "meta_norad_cat_id": 34814,
        "meta_element_set_no": 999,
        "meta_rev_at_epoch": 87426,
        "meta_bstar": 0.00051306305,
        "meta_mean_motion_dot": 1.519e-05,
        "meta_mean_motion_ddot": 0,
        "tle_line1": "1 34814U 93036ABD 25353.23019999  .00001519  00000+0  51306-3 0  9994",
        "tle_line2": "2 34814  73.8955 313.3995 0055800 201.6283 221.5963 14.36920204874268"
      },
      "geometry": {
        "type": "Point",
        "coordinates": [
          -48.354430586267185,
          -3.023648453906488
        ]
      }
    }
  ]
}